[{"CCSDS_OMM_VERS":"2.0","COMMENT":"GENERATED VIA SPACE-TRACK.ORG API","CREATION_DATE":"2021-03-26T06:26:11","ORIGINATOR":"18 SPCS","OBJECT_NAME":"ONEWEB-0135","OBJECT_ID":"2020-100Z","CENTER_NAME":"EARTH","REF_FRAME":"TEME","TIME_SYSTEM":"UTC","MEAN_ELEMENT_THEORY":"SGP4","EPOCH":"2021-03-26T02:00:01.000224","MEAN_MOTION":"13.53105606","ECCENTRICITY":"0.00120420","INCLINATION":"87.8185","RA_OF_ASC_NODE":"10.3161","ARG_OF_PERICENTER":"293.5569","MEAN_ANOMALY":"256.1417","EPHEMERIS_TYPE":"0","CLASSIFICATION_TYPE":"U","NORAD_CAT_ID":"47281","ELEMENT_SET_NO":"999","REV_AT_EPOCH":"1427","BSTAR":"0.00000000000000","MEAN_MOTION_DOT":"0.00000014","MEAN_MOTION_DDOT":"0.0000000000000","SEMIMAJOR_AXIS":"7438.991","PERIOD":"106.422","APOAPSIS":"1069.814","PERIAPSIS":"1051.898","OBJECT_TYPE":"PAYLOAD","RCS_SIZE":"LARGE","COUNTRY_CODE":"UK","LAUNCH_DATE":"2020-12-18","SITE":"VOSTO","DECAY_DATE":null,"FILE":"2994845","GP_ID":"174151428","TLE_LINE0":"0 ONEWEB-0135","TLE_LINE1":"1 47281U 20100Z   21085.08334491  .00000014  00000-0  00000+0 0  9997","TLE_LINE2":"2 47281  87.8185  10.3161 0012042 293.5569 256.1417 13.53105606 14271"},{"CCSDS_OMM_VERS":"2.0","COMMENT":"GENERATED VIA SPACE-TRACK.ORG API","CREATION_DATE":"2021-03-26T20:40:07","ORIGINATOR":"18 SPCS","OBJECT_NAME":"ONEWEB-0135","OBJECT_ID":"2020-100Z","CENTER_NAME":"EARTH","REF_FRAME":"TEME","TIME_SYSTEM":"UTC","MEAN_ELEMENT_THEORY":"SGP4","EPOCH":"2021-03-26T12:00:02.000160","MEAN_MOTION":"13.52053029","ECCENTRICITY":"0.00122320","INCLINATION":"87.8246","RA_OF_ASC_NODE":"10.2248","ARG_OF_PERICENTER":"292.6440","MEAN_ANOMALY":"124.7684","EPHEMERIS_TYPE":"0","CLASSIFICATION_TYPE":"U","NORAD_CAT_ID":"47281","ELEMENT_SET_NO":"999","REV_AT_EPOCH":"181","BSTAR":"0.00000000000000","MEAN_MOTION_DOT":"0.00000014","MEAN_MOTION_DDOT":"0.0000000000000","SEMIMAJOR_AXIS":"7442.852","PERIOD":"106.505","APOAPSIS":"1073.821","PERIAPSIS":"1055.612","OBJECT_TYPE":"PAYLOAD","RCS_SIZE":"LARGE","COUNTRY_CODE":"UK","LAUNCH_DATE":"2020-12-18","SITE":"VOSTO","DECAY_DATE":null,"FILE":"2995254","GP_ID":"174205145","TLE_LINE0":"0 ONEWEB-0135","TLE_LINE1":"1 47281U 20100Z   21085.50002315  .00000014  00000-0  00000-0 0  9992","TLE_LINE2":"2 47281  87.8246  10.2248 0012232 292.6440 124.7684 13.52053029  1815"},{"CCSDS_OMM_VERS":"2.0","COMMENT":"GENERATED VIA SPACE-TRACK.ORG API","CREATION_DATE":"2021-03-26T22:36:13","ORIGINATOR":"18 SPCS","OBJECT_NAME":"ONEWEB-0135","OBJECT_ID":"2020-100Z","CENTER_NAME":"EARTH","REF_FRAME":"TEME","TIME_SYSTEM":"UTC","MEAN_ELEMENT_THEORY":"SGP4","EPOCH":"2021-03-26T22:00:00.999936","MEAN_MOTION":"13.50994335","ECCENTRICITY":"0.00122370","INCLINATION":"87.8308","RA_OF_ASC_NODE":"10.1326","ARG_OF_PERICENTER":"289.8404","MEAN_ANOMALY":"353.5718","EPHEMERIS_TYPE":"0","CLASSIFICATION_TYPE":"U","NORAD_CAT_ID":"47281","ELEMENT_SET_NO":"999","REV_AT_EPOCH":"1438","BSTAR":"0.00000000000000","MEAN_MOTION_DOT":"0.00000014","MEAN_MOTION_DDOT":"0.0000000000000","SEMIMAJOR_AXIS":"7446.739","PERIOD":"106.588","APOAPSIS":"1077.717","PERIAPSIS":"1059.492","OBJECT_TYPE":"PAYLOAD","RCS_SIZE":"LARGE","COUNTRY_CODE":"UK","LAUNCH_DATE":"2020-12-18","SITE":"VOSTO","DECAY_DATE":null,"FILE":"2995507","GP_ID":"174207927","TLE_LINE0":"0 ONEWEB-0135","TLE_LINE1":"1 47281U 20100Z   21085.91667824  .00000014  00000-0  00000+0 0  9998","TLE_LINE2":"2 47281  87.8308  10.1326 0012237 289.8404 353.5718 13.50994335 14381"},{"CCSDS_OMM_VERS":"2.0","COMMENT":"GENERATED VIA SPACE-TRACK.ORG API","CREATION_DATE":"2021-03-27T04:40:17","ORIGINATOR":"18 SPCS","OBJECT_NAME":"ONEWEB-0135","OBJECT_ID":"2020-100Z","CENTER_NAME":"EARTH","REF_FRAME":"TEME","TIME_SYSTEM":"UTC","MEAN_ELEMENT_THEORY":"SGP4","EPOCH":"2021-03-27T00:00:02.000160","MEAN_MOTION":"13.50790517","ECCENTRICITY":"0.00122580","INCLINATION":"87.8320","RA_OF_ASC_NODE":"10.1139","ARG_OF_PERICENTER":"289.5580","MEAN_ANOMALY":"38.9327","EPHEMERIS_TYPE":"0","CLASSIFICATION_TYPE":"U","NORAD_CAT_ID":"47281","ELEMENT_SET_NO":"999","REV_AT_EPOCH":"174","BSTAR":"0.00000000000000","MEAN_MOTION_DOT":"0.00000014","MEAN_MOTION_DDOT":"0.0000000000000","SEMIMAJOR_AXIS":"7447.488","PERIOD":"106.604","APOAPSIS":"1078.483","PERIAPSIS":"1060.224","OBJECT_TYPE":"PAYLOAD","RCS_SIZE":"LARGE","COUNTRY_CODE":"UK","LAUNCH_DATE":"2020-12-18","SITE":"VOSTO","DECAY_DATE":null,"FILE":"2995961","GP_ID":"174240408","TLE_LINE0":"0 ONEWEB-0135","TLE_LINE1":"1 47281U 20100Z   21086.00002315  .00000014  00000-0  00000-0 0  9998","TLE_LINE2":"2 47281  87.8320  10.1139 0012258 289.5580  38.9327 13.50790517  1744"},{"CCSDS_OMM_VERS":"2.0","COMMENT":"GENERATED VIA SPACE-TRACK.ORG API","CREATION_DATE":"2021-03-27T06:36:12","ORIGINATOR":"18 SPCS","OBJECT_NAME":"ONEWEB-0135","OBJECT_ID":"2020-100Z","CENTER_NAME":"EARTH","REF_FRAME":"TEME","TIME_SYSTEM":"UTC","MEAN_ELEMENT_THEORY":"SGP4","EPOCH":"2021-03-27T06:00:02.000160","MEAN_MOTION":"13.50130410","ECCENTRICITY":"0.00121610","INCLINATION":"87.8357","RA_OF_ASC_NODE":"10.0591","ARG_OF_PERICENTER":"290.4231","MEAN_ANOMALY":"172.7555","EPHEMERIS_TYPE":"0","CLASSIFICATION_TYPE":"U","NORAD_CAT_ID":"47281","ELEMENT_SET_NO":"999","REV_AT_EPOCH":"1442","BSTAR":"0.00000000000000","MEAN_MOTION_DOT":"0.00000014","MEAN_MOTION_DDOT":"0.0000000000000","SEMIMAJOR_AXIS":"7449.916","PERIOD":"106.656","APOAPSIS":"1080.841","PERIAPSIS":"1062.721","OBJECT_TYPE":"PAYLOAD","RCS_SIZE":"LARGE","COUNTRY_CODE":"UK","LAUNCH_DATE":"2020-12-18","SITE":"VOSTO","DECAY_DATE":null,"FILE":"2996111","GP_ID":"174244964","TLE_LINE0":"0 ONEWEB-0135","TLE_LINE1":"1 47281U 20100Z   21086.25002315  .00000014  00000-0  00000+0 0  9994","TLE_LINE2":"2 47281  87.8357  10.0591 0012161 290.4231 172.7555 13.50130410 14421"},{"CCSDS_OMM_VERS":"2.0","COMMENT":"GENERATED VIA SPACE-TRACK.ORG API","CREATION_DATE":"2021-03-27T14:36:12","ORIGINATOR":"18 SPCS","OBJECT_NAME":"ONEWEB-0135","OBJECT_ID":"2020-100Z","CENTER_NAME":"EARTH","REF_FRAME":"TEME","TIME_SYSTEM":"UTC","MEAN_ELEMENT_THEORY":"SGP4","EPOCH":"2021-03-27T12:00:00.999648","MEAN_MOTION":"13.49494246","ECCENTRICITY":"0.00120260","INCLINATION":"87.8395","RA_OF_ASC_NODE":"10.0054","ARG_OF_PERICENTER":"288.3426","MEAN_ANOMALY":"308.9017","EPHEMERIS_TYPE":"0","CLASSIFICATION_TYPE":"U","NORAD_CAT_ID":"47281","ELEMENT_SET_NO":"999","REV_AT_EPOCH":"1446","BSTAR":"0.00000000000000","MEAN_MOTION_DOT":"0.00000014","MEAN_MOTION_DDOT":"0.0000000000000","SEMIMAJOR_AXIS":"7452.257","PERIOD":"106.707","APOAPSIS":"1083.084","PERIAPSIS":"1065.160","OBJECT_TYPE":"PAYLOAD","RCS_SIZE":"LARGE","COUNTRY_CODE":"UK","LAUNCH_DATE":"2020-12-18","SITE":"VOSTO","DECAY_DATE":null,"FILE":"2996601","GP_ID":"174256304","TLE_LINE0":"0 ONEWEB-0135","TLE_LINE1":"1 47281U 20100Z   21086.50001157  .00000014  00000-0  00000+0 0  9995","TLE_LINE2":"2 47281  87.8395  10.0054 0012026 288.3426 308.9017 13.49494246 14467"},{"CCSDS_OMM_VERS":"2.0","COMMENT":"GENERATED VIA SPACE-TRACK.ORG API","CREATION_DATE":"2021-03-27T17:47:25","ORIGINATOR":"18 SPCS","OBJECT_NAME":"ONEWEB-0135","OBJECT_ID":"2020-100Z","CENTER_NAME":"EARTH","REF_FRAME":"TEME","TIME_SYSTEM":"UTC","MEAN_ELEMENT_THEORY":"SGP4","EPOCH":"2021-03-27T14:00:01.000224","MEAN_MOTION":"13.49285025","ECCENTRICITY":"0.00120320","INCLINATION":"87.8405","RA_OF_ASC_NODE":"9.9873","ARG_OF_PERICENTER":"287.6836","MEAN_ANOMALY":"354.1370","EPHEMERIS_TYPE":"0","CLASSIFICATION_TYPE":"U","NORAD_CAT_ID":"47281","ELEMENT_SET_NO":"999","REV_AT_EPOCH":"174","BSTAR":"0.00000000000000","MEAN_MOTION_DOT":"0.00000014","MEAN_MOTION_DDOT":"0.0000000000000","SEMIMAJOR_AXIS":"7453.027","PERIOD":"106.723","APOAPSIS":"1083.860","PERIAPSIS":"1065.925","OBJECT_TYPE":"PAYLOAD","RCS_SIZE":"LARGE","COUNTRY_CODE":"UK","LAUNCH_DATE":"2020-12-18","SITE":"VOSTO","DECAY_DATE":null,"FILE":"2996885","GP_ID":"174284870","TLE_LINE0":"0 ONEWEB-0135","TLE_LINE1":"1 47281U 20100Z   21086.58334491  .00000014  00000-0  00000-0 0  9994","TLE_LINE2":"2 47281  87.8405   9.9873 0012032 287.6836 354.1370 13.49285025  1744"},{"CCSDS_OMM_VERS":"2.0","COMMENT":"GENERATED VIA SPACE-TRACK.ORG API","CREATION_DATE":"2021-03-27T22:26:12","ORIGINATOR":"18 SPCS","OBJECT_NAME":"ONEWEB-0135","OBJECT_ID":"2020-100Z","CENTER_NAME":"EARTH","REF_FRAME":"TEME","TIME_SYSTEM":"UTC","MEAN_ELEMENT_THEORY":"SGP4","EPOCH":"2021-03-27T22:00:00.999936","MEAN_MOTION":"13.48458009","ECCENTRICITY":"0.00122050","INCLINATION":"87.8452","RA_OF_ASC_NODE":"9.9143","ARG_OF_PERICENTER":"287.4437","MEAN_ANOMALY":"172.0441","EPHEMERIS_TYPE":"0","CLASSIFICATION_TYPE":"U","NORAD_CAT_ID":"47281","ELEMENT_SET_NO":"999","REV_AT_EPOCH":"1451","BSTAR":"0.00000000000000","MEAN_MOTION_DOT":"0.00000014","MEAN_MOTION_DDOT":"0.0000000000000","SEMIMAJOR_AXIS":"7456.074","PERIOD":"106.789","APOAPSIS":"1087.039","PERIAPSIS":"1068.839","OBJECT_TYPE":"PAYLOAD","RCS_SIZE":"LARGE","COUNTRY_CODE":"UK","LAUNCH_DATE":"2020-12-18","SITE":"VOSTO","DECAY_DATE":null,"FILE":"2996996","GP_ID":"174288442","TLE_LINE0":"0 ONEWEB-0135","TLE_LINE1":"1 47281U 20100Z   21086.91667824  .00000014  00000-0  00000+0 0  9999","TLE_LINE2":"2 47281  87.8452   9.9143 0012205 287.4437 172.0441 13.48458009 14511"}]